{
  "type": "FeatureCollection",
  "features": [
    {
      "type": "Feature",
      "properties": {
        "norad_id": 67152,
        "name": "KUIPER-00247",
        "group": "last-30-days",
        "lat": 5.06734174975254,
        "lon": -127.20665801211908,
        "alt_km": 456.5513204754152,
        "timestamp": "2025-12-26T22:28:04.502056+00:00",
        "meta_object_name": "KUIPER-00247",
        "meta_object_id": "2025-301V",
        "meta_epoch": "2025-12-26T15:27:40.931136",
        "meta_mean_motion": 15.34015344,
        "meta_eccentricity": 0.0011231,
        "meta_inclination": 51.8629,
        "meta_ra_of_asc_node": 58.1938,
        "meta_arg_of_pericenter": 154.7768,
        "meta_mean_anomaly": 205.3768,
        "meta_ephemeris_type": 0,
        "meta_classification_type": "U",
        "meta_norad_cat_id": 67152,
        "meta_element_set_no": 999,
        "meta_rev_at_epoch": 250,
        "meta_bstar": 0.00084978,
        "meta_mean_motion_dot": 0.00028169,
        "meta_mean_motion_ddot": 0,
        "tle_line1": "1 67152U 25301V   25360.64422374  .00028169  00000+0  84978-3 0  9994",
        "tle_line2": "2 67152  51.8629  58.1938 0011231 154.7768 205.3768 15.34015344  2502"
      },
      "geometry": {
        "type": "Point",
        "coordinates": [
          -127.20665801211908,
          5.06734174975254
        ]
      }
    },
    {
      "type": "Feature",
      "properties": {
        "norad_id": 67153,
        "name": "KUIPER-00248",
        "group": "last-30-days",
        "lat": -15.04213907859844,
        "lon": -111.07549999646716,
        "alt_km": 460.799554403382,
        "timestamp": "2025-12-26T22:28:04.502068+00:00",
        "meta_object_name": "KUIPER-00248",
        "meta_object_id": "2025-301W",
        "meta_epoch": "2025-12-26T18:28:43.267872",
        "meta_mean_motion": 15.34705298,
        "meta_eccentricity": 0.0008806,
        "meta_inclination": 51.8678,
        "meta_ra_of_asc_node": 57.538,
        "meta_arg_of_pericenter": 143.5222,
        "meta_mean_anomaly": 216.6365,
        "meta_ephemeris_type": 0,
        "meta_classification_type": "U",
        "meta_norad_cat_id": 67153,
        "meta_element_set_no": 999,
        "meta_rev_at_epoch": 269,
        "meta_bstar": 0.00087642,
        "meta_mean_motion_dot": 0.00029699,
        "meta_mean_motion_ddot": 0,
        "tle_line1": "1 67153U 25301W   25360.76994523  .00029699  00000+0  87642-3 0  9998",
        "tle_line2": "2 67153  51.8678  57.5380 0008806 143.5222 216.6365 15.34705298  2698"
      },
      "geometry": {
        "type": "Point",
        "coordinates": [
          -111.07549999646716,
          -15.04213907859844
        ]
      }
    },
    {
      "type": "Feature",
      "properties": {
        "norad_id": 67154,
        "name": "KUIPER-00249",
        "group": "last-30-days",
        "lat": -20.967661715386576,
        "lon": -105.75734618810739,
        "alt_km": 462.1594258009318,
        "timestamp": "2025-12-26T22:28:04.502079+00:00",
        "meta_object_name": "KUIPER-00249",
        "meta_object_id": "2025-301X",
        "meta_epoch": "2025-12-26T15:19:11.134848",
        "meta_mean_motion": 15.34823508,
        "meta_eccentricity": 0.00081,
        "meta_inclination": 51.8653,
        "meta_ra_of_asc_node": 58.1564,
        "meta_arg_of_pericenter": 139.941,
        "meta_mean_anomaly": 220.2175,
        "meta_ephemeris_type": 0,
        "meta_classification_type": "U",
        "meta_norad_cat_id": 67154,
        "meta_element_set_no": 999,
        "meta_rev_at_epoch": 250,
        "meta_bstar": 0.00085989,
        "meta_mean_motion_dot": 0.00029236,
        "meta_mean_motion_ddot": 0,
        "tle_line1": "1 67154U 25301X   25360.63832332  .00029236  00000+0  85989-3 0  9993",
        "tle_line2": "2 67154  51.8653  58.1564 0008100 139.9410 220.2175 15.34823508  2503"
      },
      "geometry": {
        "type": "Point",
        "coordinates": [
          -105.75734618810739,
          -20.967661715386576
        ]
      }
    },
    {
      "type": "Feature",
      "properties": {
        "norad_id": 67155,
        "name": "KUIPER-00250",
        "group": "last-30-days",
        "lat": -34.22722830173263,
        "lon": -91.01906615688506,
        "alt_km": 464.0307465919095,
        "timestamp": "2025-12-26T22:28:04.502089+00:00",
        "meta_object_name": "KUIPER-00250",
        "meta_object_id": "2025-301Y",
        "meta_epoch": "2025-12-26T15:14:29.262624",
        "meta_mean_motion": 15.35370073,
        "meta_eccentricity": 0.000624,
        "meta_inclination": 51.8715,
        "meta_ra_of_asc_node": 58.1338,
        "meta_arg_of_pericenter": 130.2941,
        "meta_mean_anomaly": 229.8591,
        "meta_ephemeris_type": 0,
        "meta_classification_type": "U",
        "meta_norad_cat_id": 67155,
        "meta_element_set_no": 999,
        "meta_rev_at_epoch": 253,
        "meta_bstar": 0.00084888,
        "meta_mean_motion_dot": 0.00029358,
        "meta_mean_motion_ddot": 0,
        "tle_line1": "1 67155U 25301Y   25360.63506091  .00029358  00000+0  84888-3 0  9996",
        "tle_line2": "2 67155  51.8715  58.1338 0006240 130.2941 229.8591 15.35370073  2533"
      },
      "geometry": {
        "type": "Point",
        "coordinates": [
          -91.01906615688506,
          -34.22722830173263
        ]
      }
    },
    {
      "type": "Feature",
      "properties": {
        "norad_id": 67156,
        "name": "KUIPER-00251",
        "group": "last-30-days",
        "lat": -17.703472822118183,
        "lon": -108.74695224691,
        "alt_km": 461.53644408291893,
        "timestamp": "2025-12-26T22:28:04.502099+00:00",
        "meta_object_name": "KUIPER-00251",
        "meta_object_id": "2025-301Z",
        "meta_epoch": "2025-12-26T15:20:18.387744",
        "meta_mean_motion": 15.34794128,
        "meta_eccentricity": 0.0008753,
        "meta_inclination": 51.8668,
        "meta_ra_of_asc_node": 58.1618,
        "meta_arg_of_pericenter": 138.1231,
        "meta_mean_anomaly": 222.0426,
        "meta_ephemeris_type": 0,
        "meta_classification_type": "U",
        "meta_norad_cat_id": 67156,
        "meta_element_set_no": 999,
        "meta_rev_at_epoch": 269,
        "meta_bstar": 0.00093482,
        "meta_mean_motion_dot": 0.00031803,
        "meta_mean_motion_ddot": 0,
        "tle_line1": "1 67156U 25301Z   25360.63910171  .00031803  00000+0  93482-3 0  9993",
        "tle_line2": "2 67156  51.8668  58.1618 0008753 138.1231 222.0426 15.34794128  2691"
      },
      "geometry": {
        "type": "Point",
        "coordinates": [
          -108.74695224691,
          -17.703472822118183
        ]
      }
    },
    {
      "type": "Feature",
      "properties": {
        "norad_id": 67157,
        "name": "KUIPER-00252",
        "group": "last-30-days",
        "lat": -4.853869760765216,
        "lon": -119.41137862470056,
        "alt_km": 458.7794241596812,
        "timestamp": "2025-12-26T22:28:04.502109+00:00",
        "meta_object_name": "KUIPER-00252",
        "meta_object_id": "2025-301AA",
        "meta_epoch": "2025-12-26T18:32:03.943104",
        "meta_mean_motion": 15.34306319,
        "meta_eccentricity": 0.000995,
        "meta_inclination": 51.8656,
        "meta_ra_of_asc_node": 57.5526,
        "meta_arg_of_pericenter": 150.1041,
        "meta_mean_anomaly": 210.0515,
        "meta_ephemeris_type": 0,
        "meta_classification_type": "U",
        "meta_norad_cat_id": 67157,
        "meta_element_set_no": 999,
        "meta_rev_at_epoch": 252,
        "meta_bstar": 0.00068968,
        "meta_mean_motion_dot": 0.00022979,
        "meta_mean_motion_ddot": 0,
        "tle_line1": "1 67157U 25301AA  25360.77226786  .00022979  00000+0  68968-3 0  9996",
        "tle_line2": "2 67157  51.8656  57.5526 0009950 150.1041 210.0515 15.34306319  2522"
      },
      "geometry": {
        "type": "Point",
        "coordinates": [
          -119.41137862470056,
          -4.853869760765216
        ]
      }
    },
    {
      "type": "Feature",
      "properties": {
        "norad_id": 67158,
        "name": "KUIPER-00261",
        "group": "last-30-days",
        "lat": -38.02885874207456,
        "lon": -85.42495182830768,
        "alt_km": 464.5490709838805,
        "timestamp": "2025-12-26T22:28:04.502119+00:00",
        "meta_object_name": "KUIPER-00261",
        "meta_object_id": "2025-301AB",
        "meta_epoch": "2025-12-26T15:12:57.910176",
        "meta_mean_motion": 15.35442331,
        "meta_eccentricity": 0.0005676,
        "meta_inclination": 51.8699,
        "meta_ra_of_asc_node": 58.1286,
        "meta_arg_of_pericenter": 127.6885,
        "meta_mean_anomaly": 232.4616,
        "meta_ephemeris_type": 0,
        "meta_classification_type": "U",
        "meta_norad_cat_id": 67158,
        "meta_element_set_no": 999,
        "meta_rev_at_epoch": 250,
        "meta_bstar": 0.00094696,
        "meta_mean_motion_dot": 0.00032883,
        "meta_mean_motion_ddot": 0,
        "tle_line1": "1 67158U 25301AB  25360.63400359  .00032883  00000+0  94696-3 0  9994",
        "tle_line2": "2 67158  51.8699  58.1286 0005676 127.6885 232.4616 15.35442331  2500"
      },
      "geometry": {
        "type": "Point",
        "coordinates": [
          -85.42495182830768,
          -38.02885874207456
        ]
      }
    }
  ]
}